[
    {
        "Altitude(m)": 559864.0605924348,
        "Argument of Periapsis(deg)": 0.006622991110713501,
        "Eccentricity": 0.0,
        "Inclination(deg)": 53.0,
        "Latitude(deg)": 52.98959518362154,
        "Longitude(deg)": -54.57563206967857,
        "Mean Anomaly(deg)": -266.2720071324224,
        "RAAN(deg)": 309.990143368528,
        "Satellite Name": "Starlink Shell 1 1369",
        "Satellite Number": 1369,
        "Semi-Major Axis(m)": 6931778.249405717,
        "Time(s)": 190
    },
    {
        "Altitude(m)": 559850.8365452403,
        "Argument of Periapsis(deg)": 0.0069715695902247375,
        "Eccentricity": 0.0,
        "Inclination(deg)": 53.0,
        "Latitude(deg)": 52.93105069000221,
        "Longitude(deg)": -53.583713040433516,
        "Mean Anomaly(deg)": -265.6451759288657,
        "RAAN(deg)": 309.9896245984506,
        "Satellite Name": "Starlink Shell 1 1369",
        "Satellite Number": 1369,
        "Semi-Major Axis(m)": 6931778.249405717,
        "Time(s)": 200
    },
    {
        "Altitude(m)": 559835.5733570695,
        "Argument of Periapsis(deg)": 0.007320148069735974,
        "Eccentricity": 0.0,
        "Inclination(deg)": 53.0,
        "Latitude(deg)": 52.863552119463506,
        "Longitude(deg)": -52.59478849046454,
        "Mean Anomaly(deg)": -265.018344725309,
        "RAAN(deg)": 309.9891058283731,
        "Satellite Name": "Starlink Shell 1 1369",
        "Satellite Number": 1369,
        "Semi-Major Axis(m)": 6931778.249405717,
        "Time(s)": 210
    },
    {
        "Altitude(m)": 559818.2802279027,
        "Argument of Periapsis(deg)": 0.007668726549247212,
        "Eccentricity": 0.0,
        "Inclination(deg)": 53.0,
        "Latitude(deg)": 52.78714867209911,
        "Longitude(deg)": -51.60926393245705,
        "Mean Anomaly(deg)": -264.39151352175224,
        "RAAN(deg)": 309.9885870582956,
        "Satellite Name": "Starlink Shell 1 1369",
        "Satellite Number": 1369,
        "Semi-Major Axis(m)": 6931778.249405717,
        "Time(s)": 220
    },
    {
        "Altitude(m)": 559798.967579528,
        "Argument of Periapsis(deg)": 0.00801730502875845,
        "Eccentricity": 0.0,
        "Inclination(deg)": 53.0,
        "Latitude(deg)": 52.701895612127316,
        "Longitude(deg)": -50.62753509277185,
        "Mean Anomaly(deg)": -263.7646823181955,
        "RAAN(deg)": 309.98806828821813,
        "Satellite Name": "Starlink Shell 1 1369",
        "Satellite Number": 1369,
        "Semi-Major Axis(m)": 6931778.249405717,
        "Time(s)": 230
    },
    {
        "Altitude(m)": 559777.6470504683,
        "Argument of Periapsis(deg)": 0.008365883508269684,
        "Eccentricity": 0.0,
        "Inclination(deg)": 53.0,
        "Latitude(deg)": 52.607854075526824,
        "Longitude(deg)": -49.649986402607446,
        "Mean Anomaly(deg)": -263.13785111463875,
        "RAAN(deg)": 309.98754951814067,
        "Satellite Name": "Starlink Shell 1 1369",
        "Satellite Number": 1369,
        "Semi-Major Axis(m)": 6931778.249405717,
        "Time(s)": 240
    },
    {
        "Altitude(m)": 559754.331490292,
        "Argument of Periapsis(deg)": 0.008714461987780921,
        "Eccentricity": 0.0,
        "Inclination(deg)": 53.0,
        "Latitude(deg)": 52.505090860366856,
        "Longitude(deg)": -48.67699107534699,
        "Mean Anomaly(deg)": -262.51101991108214,
        "RAAN(deg)": 309.9870307480632,
        "Satellite Name": "Starlink Shell 1 1369",
        "Satellite Number": 1369,
        "Semi-Major Axis(m)": 6931778.249405717,
        "Time(s)": 250
    },
    {
        "Altitude(m)": 559729.0349533502,
        "Argument of Periapsis(deg)": 0.009063040467292158,
        "Eccentricity": 0.0,
        "Inclination(deg)": 53.0,
        "Latitude(deg)": 52.39367820146838,
        "Longitude(deg)": -47.70890974902414,
        "Mean Anomaly(deg)": -261.88418870752537,
        "RAAN(deg)": 309.98651197798574,
        "Satellite Name": "Starlink Shell 1 1369",
        "Satellite Number": 1369,
        "Semi-Major Axis(m)": 6931778.249405717,
        "Time(s)": 260
    },
    {
        "Altitude(m)": 559701.7726919311,
        "Argument of Periapsis(deg)": 0.009411618946803396,
        "Eccentricity": 0.0,
        "Inclination(deg)": 53.0,
        "Latitude(deg)": 52.27369353112285,
        "Longitude(deg)": -46.746089210627126,
        "Mean Anomaly(deg)": -261.2573575039687,
        "RAAN(deg)": 309.9859932079082,
        "Satellite Name": "Starlink Shell 1 1369",
        "Satellite Number": 1369,
        "Semi-Major Axis(m)": 6931778.249405717,
        "Time(s)": 270
    },
    {
        "Altitude(m)": 559672.5611487891,
        "Argument of Periapsis(deg)": 0.009760197426314633,
        "Eccentricity": 0.0,
        "Inclination(deg)": 53.0,
        "Latitude(deg)": 52.145219227563224,
        "Longitude(deg)": -45.788862717294144,
        "Mean Anomaly(deg)": -260.63052630041193,
        "RAAN(deg)": 309.98547443783076,
        "Satellite Name": "Starlink Shell 1 1369",
        "Satellite Number": 1369,
        "Semi-Major Axis(m)": 6931778.249405717,
        "Time(s)": 280
    },
    {
        "Altitude(m)": 559641.4179491467,
        "Argument of Periapsis(deg)": 0.01010877590582587,
        "Eccentricity": 0.0,
        "Inclination(deg)": 53.0,
        "Latitude(deg)": 52.00834235317566,
        "Longitude(deg)": -44.837548891995716,
        "Mean Anomaly(deg)": -260.00369509685527,
        "RAAN(deg)": 309.9849556677533,
        "Satellite Name": "Starlink Shell 1 1369",
        "Satellite Number": 1369,
        "Semi-Major Axis(m)": 6931778.249405717,
        "Time(s)": 290
    },
    {
        "Altitude(m)": 559608.3618920591,
        "Argument of Periapsis(deg)": 0.010457354385337106,
        "Eccentricity": 0.0,
        "Inclination(deg)": 53.0,
        "Latitude(deg)": 51.86315438404655,
        "Longitude(deg)": -43.89245070561115,
        "Mean Anomaly(deg)": -259.37686389329855,
        "RAAN(deg)": 309.98443689767583,
        "Satellite Name": "Starlink Shell 1 1369",
        "Satellite Number": 1369,
        "Semi-Major Axis(m)": 6931778.249405717,
        "Time(s)": 300
    },
    {
        "Altitude(m)": 559573.4129412521,
        "Argument of Periapsis(deg)": 0.010805932864848343,
        "Eccentricity": 0.0,
        "Inclination(deg)": 53.0,
        "Latitude(deg)": 51.709750932818366,
        "Longitude(deg)": -42.9538560596951,
        "Mean Anomaly(deg)": -258.75003268974183,
        "RAAN(deg)": 309.9839181275983,
        "Satellite Name": "Starlink Shell 1 1369",
        "Satellite Number": 1369,
        "Semi-Major Axis(m)": 6931778.249405717,
        "Time(s)": 310
    },
    {
        "Altitude(m)": 559536.5922153597,
        "Argument of Periapsis(deg)": 0.01115451134435958,
        "Eccentricity": 0.0,
        "Inclination(deg)": 53.0,
        "Latitude(deg)": 51.54823146658363,
        "Longitude(deg)": -42.02203694286963,
        "Mean Anomaly(deg)": -258.1232014861851,
        "RAAN(deg)": 309.98339935752085,
        "Satellite Name": "Starlink Shell 1 1369",
        "Satellite Number": 1369,
        "Semi-Major Axis(m)": 6931778.249405717,
        "Time(s)": 320
    },
    {
        "Altitude(m)": 559497.9219775781,
        "Argument of Periapsis(deg)": 0.011503089823870818,
        "Eccentricity": 0.0,
        "Inclination(deg)": 53.0,
        "Latitude(deg)": 51.378699021568345,
        "Longitude(deg)": -41.09724867222146,
        "Mean Anomaly(deg)": -257.4963702826284,
        "RAAN(deg)": 309.98288058744345,
        "Satellite Name": "Starlink Shell 1 1369",
        "Satellite Number": 1369,
        "Semi-Major Axis(m)": 6931778.249405717,
        "Time(s)": 330
    },
    {
        "Altitude(m)": 559457.4256248099,
        "Argument of Periapsis(deg)": 0.011851668303382053,
        "Eccentricity": 0.0,
        "Inclination(deg)": 53.0,
        "Latitude(deg)": 51.2012599162848,
        "Longitude(deg)": -40.179730730282955,
        "Mean Anomaly(deg)": -256.8695390790717,
        "RAAN(deg)": 309.9823618173659,
        "Satellite Name": "Starlink Shell 1 1369",
        "Satellite Number": 1369,
        "Semi-Major Axis(m)": 6931778.249405717,
        "Time(s)": 340
    },
    {
        "Altitude(m)": 559415.1276761842,
        "Argument of Periapsis(deg)": 0.012200246782893292,
        "Eccentricity": 0.0,
        "Inclination(deg)": 53.0,
        "Latitude(deg)": 51.016023464763975,
        "Longitude(deg)": -39.26970616891691,
        "Mean Anomaly(deg)": -256.242707875515,
        "RAAN(deg)": 309.98184304728846,
        "Satellite Name": "Starlink Shell 1 1369",
        "Satellite Number": 1369,
        "Semi-Major Axis(m)": 6931778.249405717,
        "Time(s)": 350
    },
    {
        "Altitude(m)": 559371.0537610628,
        "Argument of Periapsis(deg)": 0.012548825262404526,
        "Eccentricity": 0.0,
        "Inclination(deg)": 53.0,
        "Latitude(deg)": 50.823101691384196,
        "Longitude(deg)": -38.36738108947194,
        "Mean Anomaly(deg)": -255.61587667195823,
        "RAAN(deg)": 309.981324277211,
        "Satellite Name": "Starlink Shell 1 1369",
        "Satellite Number": 1369,
        "Semi-Major Axis(m)": 6931778.249405717,
        "Time(s)": 360
    },
    {
        "Altitude(m)": 559325.2306064869,
        "Argument of Periapsis(deg)": 0.012897403741915765,
        "Eccentricity": 0.0,
        "Inclination(deg)": 53.0,
        "Latitude(deg)": 50.62260904871437,
        "Longitude(deg)": -37.47294570808727,
        "Mean Anomaly(deg)": -254.98904546840154,
        "RAAN(deg)": 309.9808055071335,
        "Satellite Name": "Starlink Shell 1 1369",
        "Satellite Number": 1369,
        "Semi-Major Axis(m)": 6931778.249405717,
        "Time(s)": 370
    }
]